STARLINK-30502          
1 57973U 23151K   26068.07659787 -.00003338  00000+0 -11181-3 0  9997
2 57973  43.0036 339.3691 0001924 254.6619 105.4020 15.27576128135670
BLUEBON                 
1 62688U 25009CH  26068.70316231  .00010452  00000+0  37313-3 0  9992
2 62688  97.4017 152.2033 0001193  43.3900 316.7434 15.29047253 63767
